[{"OBJECT_NAME":"STARLINK-6070","OBJECT_ID":"2023-078AM","EPOCH":"2026-03-09T22:00:01.999584","MEAN_MOTION":15.33868458,"ECCENTRICITY":0.00035577,"INCLINATION":70.001,"RA_OF_ASC_NODE":321.9382,"ARG_OF_PERICENTER":287.8141,"MEAN_ANOMALY":182.2971,"EPHEMERIS_TYPE":0,"CLASSIFICATION_TYPE":"U","NORAD_CAT_ID":56802,"ELEMENT_SET_NO":999,"REV_AT_EPOCH":575,"BSTAR":0.031099255,"MEAN_MOTION_DOT":0.0111992,"MEAN_MOTION_DDOT":0},{"OBJECT_NAME":"LEMUR-2-BASS","OBJECT_ID":"2023-174D","EPOCH":"2026-03-09T18:14:19.521888","MEAN_MOTION":15.39769194,"ECCENTRICITY":0.00082733,"INCLINATION":97.3876,"RA_OF_ASC_NODE":152.3241,"ARG_OF_PERICENTER":162.4261,"MEAN_ANOMALY":197.7273,"EPHEMERIS_TYPE":0,"CLASSIFICATION_TYPE":"U","NORAD_CAT_ID":58259,"ELEMENT_SET_NO":999,"REV_AT_EPOCH":13004,"BSTAR":0.00047558591,"MEAN_MOTION_DOT":0.00018791,"MEAN_MOTION_DDOT":0}]
